SENTINEL-6              
1 46984U 20086A   24116.92077471 -.00000040  00000+0  89173-4 0  9994
2 46984  66.0420 319.8289 0007780 271.3124  88.7000 12.80930391160133
